ERS-1                   
1 21574U 91050A   26090.31514397  .00000421  00000+0  14907-3 0  9994
2 21574  98.7863 109.0921 0032788 136.7691 223.6079 14.39466013818840
ARIANE 40 R/B           
1 21610U 91050F   26090.17596034  .00000393  00000+0  13013-3 0  9992
2 21610  98.1967 141.6015 0003414  32.0181 328.1216 14.42909360822099
INTERCOSMOS 25          
1 21819U 91086A   26090.03719948  .00002286  00000+0  44197-3 0  9998
2 21819  82.6005 297.1021 1486450  70.9381 304.6424 12.12073011499274
SL-8 R/B                
1 21876U 92008B   26090.19581732  .00000011  00000+0 -45751-5 0  9995
2 21876  82.9235 251.7760 0035854  75.3183  97.1365 13.75969543712378
SL-8 R/B                
1 21938U 92020B   26090.22400274  .00000044  00000+0  30044-4 0  9996
2 21938  82.9299 137.7724 0027854 235.8758 190.0905 13.75550588704090
USA 81                  
1 21949U 92023A   26090.31464635  .00000228  00000+0  76985-4 0  9990
2 21949  85.0044 118.9609 0001672  68.3380 291.7991 14.32375053 97889
COSMOS 2219             
1 22219U 92076A   26090.16683898 -.00000212  00000+0 -86515-4 0  9991
2 22219  71.0618 333.1755 0017806 175.1248 185.0052 14.14090043721410
SL-16 R/B               
1 22220U 92076B   26090.23023758 -.00000187  00000+0 -69308-4 0  9996
2 22220  70.9992 143.0023 0010764  56.2578   8.8383 14.16863454724881
COSMOS 2221             
1 22236U 92080A   26089.97077772  .00002855  00000+0  24987-3 0  9997
2 22236  82.5005 258.6893 0015542 118.7380 241.5406 14.96292393783977
SL-16 R/B               
1 22285U 92093B   26090.08185675  .00000115  00000+0  83002-4 0  9992
2 22285  71.0228 319.3606 0006555 273.0739  86.9633 14.15455616716187
COSMOS 2228             
1 22286U 92094A   26090.30704783  .00003535  00000+0  30184-3 0  9997
2 22286  82.5191 216.6125 0017009 225.9756 134.0066 14.97305867779298
SL-16 R/B               
1 22566U 93016B   26090.19509764  .00000142  00000+0  97475-4 0  9990
2 22566  71.0075 170.0169 0012345 286.4108  73.5657 14.15306052705216
